[{"OBJECT_NAME":"NUSAT-41 (C PAYNE-G)","OBJECT_ID":"2023-084N","EPOCH":"2026-03-09T21:55:54.837696","MEAN_MOTION":15.29680045,"ECCENTRICITY":0.00062175,"INCLINATION":97.5351,"RA_OF_ASC_NODE":204.1011,"ARG_OF_PERICENTER":322.2064,"MEAN_ANOMALY":37.8738,"EPHEMERIS_TYPE":0,"CLASSIFICATION_TYPE":"U","NORAD_CAT_ID":56944,"ELEMENT_SET_NO":999,"REV_AT_EPOCH":15260,"BSTAR":0.00059912824,"MEAN_MOTION_DOT":0.0001718,"MEAN_MOTION_DDOT":0},{"OBJECT_NAME":"STARLINK-31009","OBJECT_ID":"2023-191Y","EPOCH":"2026-03-09T12:09:56.109024","MEAN_MOTION":15.27125173,"ECCENTRICITY":0.00020466,"INCLINATION":42.9983,"RA_OF_ASC_NODE":104.4335,"ARG_OF_PERICENTER":225.1892,"MEAN_ANOMALY":134.8793,"EPHEMERIS_TYPE":0,"CLASSIFICATION_TYPE":"U","NORAD_CAT_ID":58530,"ELEMENT_SET_NO":999,"REV_AT_EPOCH":12546,"BSTAR":0.002937283,"MEAN_MOTION_DOT":0.00080329,"MEAN_MOTION_DDOT":0}]
